NORAD_CAT_ID,OBJECT_NAME,OBJECT_TYPE,EPOCH,MEAN_MOTION,ECCENTRICITY,INCLINATION,RA_OF_ASC_NODE,ARG_OF_PERICENTER,MEAN_ANOMALY,BSTAR,MEAN_MOTION_DOT,MEAN_MOTION_DDOT,TLE_LINE0,TLE_LINE1,TLE_LINE2,SEMIMAJOR_AXIS,PERIOD,APOGEE,PERIGEE,DECAYED
54079.0,STARLINK-5175,PAYLOAD,2023-12-21 07:41:20,15.08845417,0.0001497,53.2191,7.7448,94.4101,265.7062,0.00019542,2.824e-05,0.0,0 STARLINK-5175,1 54079U 22136AE  23355.32037201  .00002824  00000-0  19542-3 0  9995,2 54079  53.2191   7.7448 0001497  94.4101 265.7062 15.08845417 64795,6917.864,95.437,540.764,538.693,0.0
54079.0,STARLINK-5175,PAYLOAD,2023-12-22 04:21:21,15.08836099,0.0001404,53.2184,3.8745,74.9294,285.1853,-1.3139e-05,-4.97e-06,0.0,0 STARLINK-5175,1 54079U 22136AE  23356.18150292 -.00000497  00000-0 -13139-4 0  9999,2 54079  53.2184   3.8745 0001404  74.9294 285.1853 15.08836099 65407,6917.892,95.438,540.729,538.786,0.0
54079.0,STARLINK-5175,PAYLOAD,2023-12-22 07:32:08,15.08838027,0.0001413,53.218,3.2777,76.875,283.24,2.5687e-05,1.21e-06,0.0,0 STARLINK-5175,1 54079U 22136AE  23356.31398198  .00000121  00000-0  25687-4 0  9996,2 54079  53.2180   3.2777 0001413  76.8750 283.2400 15.08838027 64948,6917.886,95.438,540.729,538.774,0.0
54079.0,STARLINK-5175,PAYLOAD,2023-12-23 10:33:41,15.08839711,0.0001451,53.2181,358.2274,102.6336,257.4818,4.9205e-05,4.95e-06,0.0,0 STARLINK-5175,1 54079U 22136AE  23357.44006428  .00000495  00000-0  49205-4 0  9999,2 54079  53.2181 358.2274 0001451 102.6336 257.4818 15.08839711 65593,6917.881,95.438,540.75,538.742,0.0
54079.0,STARLINK-5175,PAYLOAD,2023-12-24 08:49:05,15.0884271,0.0001539,53.2182,354.0627,91.7339,268.3829,0.00017603,2.515e-05,0.0,0 STARLINK-5175,1 54079U 22136AE  23358.36742391  .00002515  00000-0  17603-3 0  9998,2 54079  53.2182 354.0627 0001539  91.7339 268.3829 15.08842710 65257,6917.872,95.437,540.802,538.672,0.0
54079.0,STARLINK-5175,PAYLOAD,2023-12-25 03:53:43,15.08836283,0.0001581,53.2182,350.4935,90.4019,269.7154,9.6499e-05,1.248e-05,0.0,0 STARLINK-5175,1 54079U 22136AE  23359.16231180  .00001248  00000-0  96499-4 0  9999,2 54079  53.2182 350.4935 0001581  90.4019 269.7154 15.08836283 65857,6917.892,95.438,540.85,538.663,0.0
54079.0,STARLINK-5175,PAYLOAD,2023-12-25 08:39:52,15.08848006,0.0001515,53.2187,349.6039,90.782,269.3346,0.0001877,2.701e-05,0.0,0 STARLINK-5175,1 54079U 22136AE  23359.36102292  .00002701  00000-0  18770-3 0  9992,2 54079  53.2187 349.6039 0001515  90.7820 269.3346 15.08848006 65885,6917.856,95.437,540.769,538.673,0.0
54079.0,STARLINK-5175,PAYLOAD,2023-12-26 03:44:30,15.0884277,0.0001804,53.218,346.0344,109.2223,250.8965,-1.8362e-05,-5.8e-06,0.0,0 STARLINK-5175,1 54079U 22136AE  23360.15590556 -.00000580  00000-0 -18362-4 0  9998,2 54079  53.2180 346.0344 0001804 109.2223 250.8965 15.08842770 66001,6917.872,95.437,540.985,538.489,0.0
54079.0,STARLINK-5175,PAYLOAD,2023-12-26 08:30:39,15.08844884,0.0001657,53.2186,345.1413,77.2529,282.8649,5.6266e-05,6.08e-06,0.0,0 STARLINK-5175,1 54079U 22136AE  23360.35462656  .00000608  00000-0  56266-4 0  9993,2 54079  53.2186 345.1413 0001657  77.2529 282.8649 15.08844884 65554,6917.865,95.437,540.877,538.584,0.0
54079.0,STARLINK-5175,PAYLOAD,2023-12-27 08:21:26,15.08849898,0.0001926,53.2193,340.6774,65.7094,294.4099,0.00015969,2.255e-05,0.0,0 STARLINK-5175,1 54079U 22136AE  23361.34822592  .00002255  00000-0  15969-3 0  9996,2 54079  53.2193 340.6774 0001926  65.7094 294.4099 15.08849898 66188,6917.85,95.437,541.048,538.383,0.0
54079.0,STARLINK-5175,PAYLOAD,2023-12-28 03:26:04,15.08840587,0.0001849,53.2194,337.1077,93.9653,266.1551,4.8147e-05,4.78e-06,0.0,0 STARLINK-5175,1 54079U 22136AE  23362.14310934  .00000478  00000-0  48147-4 0  9997,2 54079  53.2194 337.1077 0001849  93.9653 266.1551 15.08840587 66303,6917.879,95.438,541.023,538.464,0.0
54079.0,STARLINK-5175,PAYLOAD,2023-12-28 08:12:14,15.08840901,0.0001816,53.2191,336.222,72.0916,288.0274,5.6505e-05,6.11e-06,0.0,0 STARLINK-5175,1 54079U 22136AE  23362.34183115  .00000611  00000-0  56505-4 0  9994,2 54079  53.2191 336.2220 0001816  72.0916 288.0274 15.08840901 65858,6917.878,95.437,540.999,538.486,0.0
54079.0,STARLINK-5175,PAYLOAD,2023-12-29 08:03:00,15.08846796,0.0001509,53.2186,331.7623,100.4934,259.6228,1.9896e-05,2.9e-07,0.0,0 STARLINK-5175,1 54079U 22136AE  23363.33542690  .00000029  00000-0  19896-4 0  9996,2 54079  53.2186 331.7623 0001509 100.4934 259.6228 15.08846796 66485,6917.86,95.437,540.769,538.681,0.0
54079.0,STARLINK-5175,PAYLOAD,2023-12-29 22:21:29,15.08844995,0.0001538,53.2184,329.0849,119.7272,240.3873,-7.0855e-05,-1.416e-05,0.0,0 STARLINK-5175,1 54079U 22136AE  23363.93159171 -.00001416  00000-0 -70855-4 0  9995,2 54079  53.2184 329.0849 0001538 119.7272 240.3873 15.08844995 66092,6917.865,95.437,540.794,538.666,0.0
54079.0,STARLINK-5175,PAYLOAD,2023-12-30 03:07:38,15.08841804,0.0001371,53.2183,328.1931,100.4634,259.6513,3.2135e-05,2.24e-06,0.0,0 STARLINK-5175,1 54079U 22136AE  23364.13031025  .00000224  00000-0  32135-4 0  9998,2 54079  53.2183 328.1931 0001371 100.4634 259.6513 15.08841804 66604,6917.875,95.437,540.688,538.791,0.0
54079.0,STARLINK-5175,PAYLOAD,2023-12-30 07:53:48,15.08845849,0.0001595,53.2184,327.3019,123.0392,237.0753,-3.1228e-05,-7.85e-06,0.0,0 STARLINK-5175,1 54079U 22136AE  23364.32902865 -.00000785  00000-0 -31228-4 0  9994,2 54079  53.2184 327.3019 0001595 123.0392 237.0753 15.08845849 66152,6917.863,95.437,540.831,538.624,0.0
54079.0,STARLINK-5175,PAYLOAD,2023-12-30 22:12:16,15.08830504,0.0001524,53.2183,324.6255,111.9267,248.1887,0.00011833,1.595e-05,0.0,0 STARLINK-5175,1 54079U 22136AE  23364.92519498  .00001595  00000-0  11833-3 0  9993,2 54079  53.2183 324.6255 0001524 111.9267 248.1887 15.08830504 66245,6917.909,95.438,540.829,538.72,0.0
54079.0,STARLINK-5175,PAYLOAD,2023-12-31 07:44:35,15.0883786,0.0001493,53.2179,322.841,113.9835,246.1313,0.0001194,1.613e-05,0.0,0 STARLINK-5175,1 54079U 22136AE  23365.32263238  .00001613  00000-0  11940-3 0  9996,2 54079  53.2179 322.8410 0001493 113.9835 246.1313 15.08837860 66784,6917.887,95.438,540.785,538.719,0.0
54079.0,STARLINK-5175,PAYLOAD,2024-01-01 05:59:59,15.08842891,0.000153,53.2181,318.677,107.0267,253.0893,2.3879e-05,9.2e-07,0.0,0 STARLINK-5175,1 54079U 22136AE  24001.24999382  .00000092  00000-0  23879-4 0  9996,2 54079  53.2181 318.6770 0001530 107.0267 253.0893 15.08842891 66447,6917.872,95.437,540.795,538.678,0.0
54079.0,STARLINK-5175,PAYLOAD,2024-01-02 04:15:23,15.08846959,0.0001414,53.2186,314.5133,92.2814,267.834,0.00011026,1.468e-05,0.0,0 STARLINK-5175,1 54079U 22136AE  24002.17735039  .00001468  00000-0  11026-3 0  9994,2 54079  53.2186 314.5133 0001414  92.2814 267.8340 15.08846959 67062,6917.859,95.437,540.702,538.746,0.0
54079.0,STARLINK-5175,PAYLOAD,2024-01-02 05:50:45,15.08852778,0.0001375,53.2185,314.217,95.8169,264.298,5.1119e-05,5.26e-06,0.0,0 STARLINK-5175,1 54079U 22136AE  24002.24358790  .00000526  00000-0  51119-4 0  9999,2 54079  53.2185 314.2170 0001375  95.8169 264.2980 15.08852778 66591,6917.841,95.437,540.658,538.755,0.0
54079.0,STARLINK-5175,PAYLOAD,2024-01-03 05:41:33,15.08849103,0.0001642,53.2187,309.7602,72.9821,287.1351,0.00013498,1.861e-05,0.0,0 STARLINK-5175,1 54079U 22136AE  24003.23718875  .00001861  00000-0  13498-3 0  9993,2 54079  53.2187 309.7602 0001642  72.9821 287.1351 15.08849103 67225,6917.853,95.437,540.853,538.582,0.0
54079.0,STARLINK-5175,PAYLOAD,2024-01-04 02:21:34,15.08844073,0.0001687,53.2188,305.8946,92.3684,267.7501,-1.5904e-06,-3.13e-06,0.0,0 STARLINK-5175,1 54079U 22136AE  24004.09831356 -.00000313  00000-0 -15904-5 0  9997,2 54079  53.2188 305.8946 0001687  92.3684 267.7501 15.08844073 67352,6917.868,95.437,540.9,538.566,0.0
54079.0,STARLINK-5175,PAYLOAD,2024-01-04 19:50:48,15.08845546,0.0001498,53.2173,302.6278,88.7798,271.3366,-2.1192e-05,-6.25e-06,0.0,0 STARLINK-5175,1 54079U 22136AE  24004.82695313 -.00000625  00000-0 -21192-4 0  9990,2 54079  53.2173 302.6278 0001498  88.7798 271.3366 15.08845546 66988,6917.863,95.437,540.765,538.692,0.0
54079.0,STARLINK-5175,PAYLOAD,2024-01-05 05:23:07,15.08849248,0.0001426,53.2167,300.8406,92.1013,268.0142,2.5844e-05,1.23e-06,0.0,0 STARLINK-5175,1 54079U 22136AE  24005.22438760  .00000123  00000-0  25844-4 0  9995,2 54079  53.2167 300.8406 0001426  92.1013 268.0142 15.08849248 67523,6917.852,95.437,540.704,538.731,0.0
54079.0,STARLINK-5175,PAYLOAD,2024-01-05 19:41:36,15.08835372,0.0001753,53.2175,298.1621,114.902,245.2155,-8.2217e-06,-4.19e-06,0.0,0 STARLINK-5175,1 54079U 22136AE  24005.82055738 -.00000419  00000-0 -82217-5 0  9999,2 54079  53.2175 298.1621 0001753 114.9020 245.2155 15.08835372 67618,6917.895,95.438,540.972,538.547,0.0
54079.0,STARLINK-5175,PAYLOAD,2024-01-06 05:13:54,15.08844343,0.0001509,53.2177,296.3792,104.4034,255.7126,2.8297e-05,1.62e-06,0.0,0 STARLINK-5175,1 54079U 22136AE  24006.21799134  .00000162  00000-0  28297-4 0  9998,2 54079  53.2177 296.3792 0001509 104.4034 255.7126 15.08844343 67675,6917.867,95.437,540.776,538.688,0.0
54079.0,STARLINK-5175,PAYLOAD,2024-01-06 19:32:23,15.08835853,0.0001576,53.2173,293.7018,113.6793,246.4365,-2.0483e-05,-6.14e-06,0.0,0 STARLINK-5175,1 54079U 22136AE  24006.81416026 -.00000614  00000-0 -20483-4 0  9993,2 54079  53.2173 293.7018 0001576 113.6793 246.4365 15.08835853 67769,6917.893,95.438,540.848,538.668,0.0
54079.0,STARLINK-5175,PAYLOAD,2024-01-06 22:43:09,15.08836109,0.0001532,53.2169,293.1073,109.9031,250.2127,-7.0928e-06,-4.01e-06,0.0,0 STARLINK-5175,1 54079U 22136AE  24006.94663979 -.00000401  00000-0 -70928-5 0  9992,2 54079  53.2169 293.1073 0001532 109.9031 250.2127 15.08836109 67308,6917.892,95.438,540.817,538.697,0.0
54079.0,STARLINK-5175,PAYLOAD,2024-01-07 01:53:55,15.08838156,0.000152,53.217,292.5123,111.3591,248.7563,-9.7547e-06,-4.43e-06,0.0,0 STARLINK-5175,1 54079U 22136AE  24007.07911876 -.00000443  00000-0 -97547-5 0  9991,2 54079  53.2170 292.5123 0001520 111.3591 248.7563 15.08838156 67326,6917.886,95.438,540.803,538.7,0.0
